STARLINK-37867          
1 69661U 26143N   26188.41672454 -.02391431  00000+0 -22066-1 0  9993
2 69661  97.2849 232.3501 0001430  78.1453 301.3813 15.71231570  3612
STARLINK-37852          
1 69662U 26143P   26188.41672454 -.02350988  00000+0 -27897-1 0  9993
2 69662  97.2854 232.3094 0001708 105.0399 173.2649 15.64426448  3618
STARLINK-37554          
1 69663U 26143Q   26188.41672454 -.01310978  00000+0 -12609-1 0  9993
2 69663  97.2848 232.3330 0001021  60.3565 283.5042 15.69304555  3656
STARLINK-37830          
1 69664U 26143R   26188.41672454 -.02485320  00000+0 -27097-1 0  9996
2 69664  97.2853 232.3172 0001306 107.4996 200.5989 15.66732256  3608
STARLINK-37837          
1 69665U 26143S   26188.41672454 -.01975049  00000+0 -17472-1 0  9994
2 69665  97.2849 232.3405 0001355  75.6085 284.8103 15.71549684  3613
STARLINK-37943          
1 69666U 26143T   26188.41672454 -.00816440  00000+0 -96624-2 0  9990
2 69666  97.2848 232.3197 0001591 104.8396 200.7855 15.63768816  3615
STARLINK-37941          
1 69667U 26143U   26188.41672454 -.00847305  00000+0 -83089-2 0  9996
2 69667  97.2849 232.3318 0001109 105.3270 236.8755 15.68535261  3614
STARLINK-37930          
1 69668U 26143V   26188.41672454 -.00656537  00000+0 -68437-2 0  9992
2 69668  97.2854 232.3291 0001054 105.3096 224.5588 15.66467155  3607
STARLINK-37945          
1 69669U 26143W   26188.41672454 -.02546481  00000+0 -22282-1 0  9998
2 69669  97.2848 232.3491 0001473  90.7022 291.6891 15.72104960  3616
STARLINK-37948          
1 69670U 26143X   26188.41672454 -.02615126  00000+0 -43431-1 0  9992
2 69670  97.2855 232.3069 0001304  79.8546 197.7553 15.55475171  3616
STARLINK-37949          
1 69671U 26143Y   26188.41672454 -.00693491  00000+0 -84599-2 0  9993
2 69671  97.2850 232.3368 0001197  82.2464 261.6899 15.62614864  3617
STARLINK-37946          
1 69672U 26143Z   26188.41672454 -.02417033  00000+0 -24739-1 0  9991
2 69672  97.2846 232.3509 0001396  75.8832 307.4316 15.68180505  3617
TJS-26A                 
1 69674U 26144A   26174.32980920  .00009630 -16661-6  31526-3 0  9997
2 69674  19.5157 324.7456 7314561 179.7910 181.1077  2.27958502    21
STARLINK-38005          
1 69677U 26145A   26188.42631196  .00167598  00000+0  10938-2 0  9998
2 69677  97.2849  34.8789 0001236  75.7123 284.4279 15.75375757  1955
STARLINK-38009          
1 69678U 26145B   26188.42454529  .00186438  00000+0  12129-2 0  9990
2 69678  97.2844  34.8810 0001178  94.8477 265.2922 15.75395580  1953
STARLINK-37998          
1 69679U 26145C   26188.48558553  .00194401  00000+0  12604-2 0  9996
2 69679  97.2852  34.9520 0001196  56.2788 303.8592 15.75452053  1961
STARLINK-37994          
1 69680U 26145D   26188.42348117  .00201893  00000+0  13097-2 0  9996
2 69680  97.2860  34.8840 0001081  59.7315 300.4057 15.75419163  1956
STARLINK-37992          
1 69681U 26145E   26188.42314269  .00183951  00000+0  11980-2 0  9991
2 69681  97.2848  34.8834 0001710  66.0334 294.1110 15.75377994  1951
STARLINK-37997          
1 69682U 26145F   26188.42243481  .00158602  00000+0  10369-2 0  9994
2 69682  97.2848  34.8839 0001597  96.4645 263.6802 15.75359830  1950
STARLINK-37990          
1 69683U 26145G   26188.42278112  .00185016  00000+0  12039-2 0  9999
2 69683  97.2841  34.8832 0001286  90.6496 269.4917 15.75394447  1956
STARLINK-37951          
1 69684U 26145H   26188.42171911  .00208391  00000+0  13513-2 0  9999
2 69684  97.2851  34.8852 0001040  98.6982 261.4401 15.75408794  1957
STARLINK-37957          
1 69685U 26145J   26188.42066635  .00177669  00000+0  11577-2 0  9997
2 69685  97.2842  34.8863 0001447  90.2743 269.8688 15.75383484  1951
STARLINK-37968          
1 69686U 26145K   26188.41466823  .00146459  00000+0  95919-3 0  9996
2 69686  97.2852  34.8960 0000808 110.4431 249.6921 15.75354898  1953
STARLINK-37977          
1 69687U 26145L   26188.41394703  .00230560  00000+0  14882-2 0  9990
2 69687  97.2857  34.8969 0000759 110.6882 249.4465 15.75453100  1952
STARLINK-37908          
1 69688U 26145M   26188.41672454  .00060096  00000+0  40180-3 0  9999
2 69688  97.2863  34.9058 0000869  93.7930 293.8509 15.75141503  3187
STARLINK-37979          
1 69689U 26145N   26188.41672454  .00025324  00000+0  17029-3 0  9991
2 69689  97.2863  34.9062 0001528  88.4081 301.2161 15.75169863  3181
STARLINK-37940          
1 69690U 26145P   26188.41043779  .00152712  00000+0  99934-3 0  9992
2 69690  97.2846  34.9010 0002009 106.2880 253.8606 15.75354595  1955
STARLINK-37961          
1 69691U 26145Q   26188.41672454  .00014742  00000+0  99595-4 0  9995
2 69691  97.2860  34.9163 0001330  89.3737 324.2448 15.75175435  3187
STARLINK-37787          
1 69692U 26145R   26188.41672454 -.00027745  00000+0 -18579-3 0  9997
2 69692  97.2851  34.9228 0001347  68.9549 356.6710 15.75185093  3184
STARLINK-37962          
1 69693U 26145S   26188.41672454 -.00030739  00000+0 -20599-3 0  9990
2 69693  97.2851  34.9272 0001588  90.5221 345.1023 15.75185146  3188
